[
    {
        "Altitude(m)": 702877.8147208266,
        "Argument of Periapsis(deg)": 0.007973084830638947,
        "Eccentricity": 0.0,
        "Inclination(deg)": 45.0,
        "Latitude(deg)": 5.82035567787703,
        "Longitude(deg)": 48.6485098636827,
        "Mean Anomaly(deg)": -188.29034834676338,
        "RAAN(deg)": 334.99247364097926,
        "Satellite Name": "Constellation 1 1484",
        "Satellite Number": 1484,
        "Semi-Major Axis(m)": 7083131.272910544,
        "Time(s)": 133
    },
    {
        "Altitude(m)": 702880.6268088411,
        "Argument of Periapsis(deg)": 0.008033032836884352,
        "Eccentricity": 0.0,
        "Inclination(deg)": 45.0,
        "Latitude(deg)": 5.777357416601227,
        "Longitude(deg)": 48.68770567356032,
        "Mean Anomaly(deg)": -188.22964720651345,
        "RAAN(deg)": 334.99241705181373,
        "Satellite Name": "Constellation 1 1484",
        "Satellite Number": 1484,
        "Semi-Major Axis(m)": 7083131.272910544,
        "Time(s)": 134
    },
    {
        "Altitude(m)": 702883.459556896,
        "Argument of Periapsis(deg)": 0.008092980843129758,
        "Eccentricity": 0.0,
        "Inclination(deg)": 45.0,
        "Latitude(deg)": 5.734355845840413,
        "Longitude(deg)": 48.72689490163716,
        "Mean Anomaly(deg)": -188.1689460662636,
        "RAAN(deg)": 334.99236046264815,
        "Satellite Name": "Constellation 1 1484",
        "Satellite Number": 1484,
        "Semi-Major Axis(m)": 7083131.272910544,
        "Time(s)": 135
    },
    {
        "Altitude(m)": 702886.3129709829,
        "Argument of Periapsis(deg)": 0.008152928849375162,
        "Eccentricity": 0.0,
        "Inclination(deg)": 45.0,
        "Latitude(deg)": 5.6913509913857405,
        "Longitude(deg)": 48.76607759721491,
        "Mean Anomaly(deg)": -188.1082449260137,
        "RAAN(deg)": 334.9923038734825,
        "Satellite Name": "Constellation 1 1484",
        "Satellite Number": 1484,
        "Semi-Major Axis(m)": 7083131.272910544,
        "Time(s)": 136
    },
    {
        "Altitude(m)": 702889.1870570085,
        "Argument of Periapsis(deg)": 0.008212876855620568,
        "Eccentricity": 0.0,
        "Inclination(deg)": 45.0,
        "Latitude(deg)": 5.648342879015942,
        "Longitude(deg)": 48.80525380958087,
        "Mean Anomaly(deg)": -188.04754378576374,
        "RAAN(deg)": 334.992247284317,
        "Satellite Name": "Constellation 1 1484",
        "Satellite Number": 1484,
        "Semi-Major Axis(m)": 7083131.272910544,
        "Time(s)": 137
    },
    {
        "Altitude(m)": 702892.0818207829,
        "Argument of Periapsis(deg)": 0.008272824861865974,
        "Eccentricity": 0.0,
        "Inclination(deg)": 45.0,
        "Latitude(deg)": 5.6053315344973855,
        "Longitude(deg)": 48.8444235880077,
        "Mean Anomaly(deg)": -187.9868426455139,
        "RAAN(deg)": 334.9921906951514,
        "Satellite Name": "Constellation 1 1484",
        "Satellite Number": 1484,
        "Semi-Major Axis(m)": 7083131.272910544,
        "Time(s)": 138
    },
    {
        "Altitude(m)": 702894.9972680256,
        "Argument of Periapsis(deg)": 0.00833277286811138,
        "Eccentricity": 0.0,
        "Inclination(deg)": 45.0,
        "Latitude(deg)": 5.562316983583964,
        "Longitude(deg)": 48.88358698175407,
        "Mean Anomaly(deg)": -187.92614150526407,
        "RAAN(deg)": 334.9921341059859,
        "Satellite Name": "Constellation 1 1484",
        "Satellite Number": 1484,
        "Semi-Major Axis(m)": 7083131.272910544,
        "Time(s)": 139
    },
    {
        "Altitude(m)": 702897.9334043668,
        "Argument of Periapsis(deg)": 0.008392720874356788,
        "Eccentricity": 0.0,
        "Inclination(deg)": 45.0,
        "Latitude(deg)": 5.519299252017227,
        "Longitude(deg)": 48.92274404006454,
        "Mean Anomaly(deg)": -187.8654403650141,
        "RAAN(deg)": 334.9920775168203,
        "Satellite Name": "Constellation 1 1484",
        "Satellite Number": 1484,
        "Semi-Major Axis(m)": 7083131.272910544,
        "Time(s)": 140
    },
    {
        "Altitude(m)": 702900.8902353432,
        "Argument of Periapsis(deg)": 0.008452668880602192,
        "Eccentricity": 0.0,
        "Inclination(deg)": 45.0,
        "Latitude(deg)": 5.476278365526523,
        "Longitude(deg)": 48.96189464407246,
        "Mean Anomaly(deg)": -187.80473922476418,
        "RAAN(deg)": 334.9920209276548,
        "Satellite Name": "Constellation 1 1484",
        "Satellite Number": 1484,
        "Semi-Major Axis(m)": 7083131.272910544,
        "Time(s)": 141
    },
    {
        "Altitude(m)": 702903.8677664046,
        "Argument of Periapsis(deg)": 0.008512616886847598,
        "Eccentricity": 0.0,
        "Inclination(deg)": 45.0,
        "Latitude(deg)": 5.433254349829892,
        "Longitude(deg)": 49.0010391791882,
        "Mean Anomaly(deg)": -187.74403808451436,
        "RAAN(deg)": 334.99196433848914,
        "Satellite Name": "Constellation 1 1484",
        "Satellite Number": 1484,
        "Semi-Major Axis(m)": 7083131.272910544,
        "Time(s)": 142
    },
    {
        "Altitude(m)": 702906.8660029065,
        "Argument of Periapsis(deg)": 0.008572564893093004,
        "Eccentricity": 0.0,
        "Inclination(deg)": 45.0,
        "Latitude(deg)": 5.3902272306323376,
        "Longitude(deg)": 49.04017752651764,
        "Mean Anomaly(deg)": -187.68333694426443,
        "RAAN(deg)": 334.99190774932356,
        "Satellite Name": "Constellation 1 1484",
        "Satellite Number": 1484,
        "Semi-Major Axis(m)": 7083131.272910544,
        "Time(s)": 143
    },
    {
        "Altitude(m)": 702909.8849501109,
        "Argument of Periapsis(deg)": 0.008632512899338408,
        "Eccentricity": 0.0,
        "Inclination(deg)": 45.0,
        "Latitude(deg)": 5.347197033627584,
        "Longitude(deg)": 49.079309735249495,
        "Mean Anomaly(deg)": -187.62263580401458,
        "RAAN(deg)": 334.99185116015803,
        "Satellite Name": "Constellation 1 1484",
        "Satellite Number": 1484,
        "Semi-Major Axis(m)": 7083131.272910544,
        "Time(s)": 144
    },
    {
        "Altitude(m)": 702912.9246131907,
        "Argument of Periapsis(deg)": 0.008692460905583814,
        "Eccentricity": 0.0,
        "Inclination(deg)": 45.0,
        "Latitude(deg)": 5.304163784497338,
        "Longitude(deg)": 49.11843585455917,
        "Mean Anomaly(deg)": -187.5619346637646,
        "RAAN(deg)": 334.99179457099245,
        "Satellite Name": "Constellation 1 1484",
        "Satellite Number": 1484,
        "Semi-Major Axis(m)": 7083131.272910544,
        "Time(s)": 145
    },
    {
        "Altitude(m)": 702915.9849972335,
        "Argument of Periapsis(deg)": 0.00875240891182922,
        "Eccentricity": 0.0,
        "Inclination(deg)": 45.0,
        "Latitude(deg)": 5.261127508911861,
        "Longitude(deg)": 49.157555933608265,
        "Mean Anomaly(deg)": -187.50123352351474,
        "RAAN(deg)": 334.99173798182693,
        "Satellite Name": "Constellation 1 1484",
        "Satellite Number": 1484,
        "Semi-Major Axis(m)": 7083131.272910544,
        "Time(s)": 146
    },
    {
        "Altitude(m)": 702919.0661072246,
        "Argument of Periapsis(deg)": 0.008812356918074627,
        "Eccentricity": 0.0,
        "Inclination(deg)": 45.0,
        "Latitude(deg)": 5.218088232529506,
        "Longitude(deg)": 49.19667002154507,
        "Mean Anomaly(deg)": -187.44053238326487,
        "RAAN(deg)": 334.9916813926613,
        "Satellite Name": "Constellation 1 1484",
        "Satellite Number": 1484,
        "Semi-Major Axis(m)": 7083131.272910544,
        "Time(s)": 147
    },
    {
        "Altitude(m)": 702922.1679480646,
        "Argument of Periapsis(deg)": 0.008872304924320031,
        "Eccentricity": 0.0,
        "Inclination(deg)": 45.0,
        "Latitude(deg)": 5.175045980997077,
        "Longitude(deg)": 49.235777999407624,
        "Mean Anomaly(deg)": -187.37983124301493,
        "RAAN(deg)": 334.9916248034957,
        "Satellite Name": "Constellation 1 1484",
        "Satellite Number": 1484,
        "Semi-Major Axis(m)": 7083131.272910544,
        "Time(s)": 148
    },
    {
        "Altitude(m)": 702925.2905245582,
        "Argument of Periapsis(deg)": 0.008932252930565437,
        "Eccentricity": 0.0,
        "Inclination(deg)": 45.0,
        "Latitude(deg)": 5.132000779950758,
        "Longitude(deg)": 49.27488025251166,
        "Mean Anomaly(deg)": -187.31913010276503,
        "RAAN(deg)": 334.9915682143302,
        "Satellite Name": "Constellation 1 1484",
        "Satellite Number": 1484,
        "Semi-Major Axis(m)": 7083131.272910544,
        "Time(s)": 149
    },
    {
        "Altitude(m)": 702928.4338414263,
        "Argument of Periapsis(deg)": 0.008992200936810843,
        "Eccentricity": 0.0,
        "Inclination(deg)": 45.0,
        "Latitude(deg)": 5.088952655014394,
        "Longitude(deg)": 49.31397666186887,
        "Mean Anomaly(deg)": -187.2584289625151,
        "RAAN(deg)": 334.9915116251646,
        "Satellite Name": "Constellation 1 1484",
        "Satellite Number": 1484,
        "Semi-Major Axis(m)": 7083131.272910544,
        "Time(s)": 150
    },
    {
        "Altitude(m)": 702931.5979032901,
        "Argument of Periapsis(deg)": 0.009052148943056249,
        "Eccentricity": 0.0,
        "Inclination(deg)": 45.0,
        "Latitude(deg)": 5.045901631801243,
        "Longitude(deg)": 49.35306727657464,
        "Mean Anomaly(deg)": -187.19772782226525,
        "RAAN(deg)": 334.9914550359991,
        "Satellite Name": "Constellation 1 1484",
        "Satellite Number": 1484,
        "Semi-Major Axis(m)": 7083131.272910544,
        "Time(s)": 151
    }
]